{
  "norad_id": 47806,
  "name": "STARLINK-2387",
  "history": [
    {
      "epoch": "2026-03-28T14:22:55.193952Z",
      "apogee_km": 476.0935302599555,
      "perigee_km": 474.3760752861799,
      "latitude_deg": 5.4351462054496256e-05,
      "longitude_deg": 112.86288220127653,
      "height_km": 476.03407136884334,
      "semi_major_axis_km": 6853.371802773067,
      "eccentricity": 0.0001253,
      "inclination_deg": 53.1604,
      "raan_deg": 154.6102,
      "arg_perigee_deg": 83.3882,
      "mean_anomaly_deg": 276.7262,
      "mean_motion_rev_day": 15.30193391
    },
    {
      "epoch": "2026-03-30T04:00:11.977920Z",
      "apogee_km": 476.7560242060317,
      "perigee_km": 473.6788680597174,
      "latitude_deg": -2.690980487152584e-06,
      "longitude_deg": -100.28284602848282,
      "height_km": 475.88460207126207,
      "semi_major_axis_km": 6853.354446132874,
      "eccentricity": 0.0002245,
      "inclination_deg": 53.1598,
      "raan_deg": 147.3295,
      "arg_perigee_deg": 81.4201,
      "mean_anomaly_deg": 278.7054,
      "mean_motion_rev_day": 15.30199204
    }
  ]
}